[{"OBJECT_NAME":"COSMOS 2529 (757)","OBJECT_ID":"2018-086A","EPOCH":"2026-03-14T20:38:27.895776","MEAN_MOTION":2.13102093,"ECCENTRICITY":0.00083602,"INCLINATION":64.295,"RA_OF_ASC_NODE":195.7765,"ARG_OF_PERICENTER":253.0961,"MEAN_ANOMALY":106.7938,"EPHEMERIS_TYPE":0,"CLASSIFICATION_TYPE":"U","NORAD_CAT_ID":43687,"ELEMENT_SET_NO":999,"REV_AT_EPOCH":5727,"BSTAR":0,"MEAN_MOTION_DOT":2.0e-8,"MEAN_MOTION_DDOT":0},{"OBJECT_NAME":"BEIDOU-3 M17 (C36)","OBJECT_ID":"2018-093A","EPOCH":"2026-03-10T12:31:53.319360","MEAN_MOTION":1.86228516,"ECCENTRICITY":0.00072315,"INCLINATION":54.1708,"RA_OF_ASC_NODE":185.6435,"ARG_OF_PERICENTER":296.136,"MEAN_ANOMALY":71.6984,"EPHEMERIS_TYPE":0,"CLASSIFICATION_TYPE":"U","NORAD_CAT_ID":43706,"ELEMENT_SET_NO":999,"REV_AT_EPOCH":4970,"BSTAR":0,"MEAN_MOTION_DOT":2.0e-8,"MEAN_MOTION_DDOT":0},{"OBJECT_NAME":"BEIDOU-3 M18 (C37)","OBJECT_ID":"2018-093B","EPOCH":"2026-03-12T12:29:38.226048","MEAN_MOTION":1.86226619,"ECCENTRICITY":0.00061101,"INCLINATION":54.172,"RA_OF_ASC_NODE":185.5676,"ARG_OF_PERICENTER":338.6816,"MEAN_ANOMALY":21.2791,"EPHEMERIS_TYPE":0,"CLASSIFICATION_TYPE":"U","NORAD_CAT_ID":43707,"ELEMENT_SET_NO":999,"REV_AT_EPOCH":4973,"BSTAR":0,"MEAN_MOTION_DOT":-1.1e-7,"MEAN_MOTION_DDOT":0},{"OBJECT_NAME":"GPS BIII-1  (PRN 04)","OBJECT_ID":"2018-109A","EPOCH":"2026-03-13T12:35:29.217408","MEAN_MOTION":2.00557317,"ECCENTRICITY":0.00380595,"INCLINATION":55.6205,"RA_OF_ASC_NODE":95.9595,"ARG_OF_PERICENTER":198.5669,"MEAN_ANOMALY":333.4222,"EPHEMERIS_TYPE":0,"CLASSIFICATION_TYPE":"U","NORAD_CAT_ID":43873,"ELEMENT_SET_NO":999,"REV_AT_EPOCH":5315,"BSTAR":0,"MEAN_MOTION_DOT":3.5e-7,"MEAN_MOTION_DDOT":0},{"OBJECT_NAME":"BEIDOU-3 IGSO-1 (C38)","OBJECT_ID":"2019-023A","EPOCH":"2026-03-14T19:20:13.292160","MEAN_MOTION":1.00268038,"ECCENTRICITY":0.00255758,"INCLINATION":58.5685,"RA_OF_ASC_NODE":38.6206,"ARG_OF_PERICENTER":236.0412,"MEAN_ANOMALY":306.7281,"EPHEMERIS_TYPE":0,"CLASSIFICATION_TYPE":"U","NORAD_CAT_ID":44204,"ELEMENT_SET_NO":999,"REV_AT_EPOCH":626,"BSTAR":0,"MEAN_MOTION_DOT":-1.86e-6,"MEAN_MOTION_DDOT":0},{"OBJECT_NAME":"BEIDOU-2 G8 (C01)","OBJECT_ID":"2019-027A","EPOCH":"2026-03-14T22:53:15.364320","MEAN_MOTION":1.00273625,"ECCENTRICITY":0.00114845,"INCLINATION":1.4178,"RA_OF_ASC_NODE":74.26,"ARG_OF_PERICENTER":274.9672,"MEAN_ANOMALY":311.1519,"EPHEMERIS_TYPE":0,"CLASSIFICATION_TYPE":"U","NORAD_CAT_ID":44231,"ELEMENT_SET_NO":999,"REV_AT_EPOCH":2513,"BSTAR":0,"MEAN_MOTION_DOT":-2.47e-6,"MEAN_MOTION_DDOT":0},{"OBJECT_NAME":"COSMOS 2534 (758)","OBJECT_ID":"2019-030A","EPOCH":"2026-03-14T07:36:08.100288","MEAN_MOTION":2.13102462,"ECCENTRICITY":0.00099565,"INCLINATION":64.3686,"RA_OF_ASC_NODE":195.8081,"ARG_OF_PERICENTER":279.3052,"MEAN_ANOMALY":158.2774,"EPHEMERIS_TYPE":0,"CLASSIFICATION_TYPE":"U","NORAD_CAT_ID":44299,"ELEMENT_SET_NO":999,"REV_AT_EPOCH":5290,"BSTAR":0,"MEAN_MOTION_DOT":2.0e-8,"MEAN_MOTION_DDOT":0},{"OBJECT_NAME":"BEIDOU-3 IGSO-2 (C39)","OBJECT_ID":"2019-035A","EPOCH":"2026-02-26T16:31:51.989952","MEAN_MOTION":1.00247364,"ECCENTRICITY":0.00387345,"INCLINATION":55.2338,"RA_OF_ASC_NODE":159.8353,"ARG_OF_PERICENTER":206.4752,"MEAN_ANOMALY":153.7223,"EPHEMERIS_TYPE":0,"CLASSIFICATION_TYPE":"U","NORAD_CAT_ID":44337,"ELEMENT_SET_NO":999,"REV_AT_EPOCH":2456,"BSTAR":0,"MEAN_MOTION_DOT":-1.76e-6,"MEAN_MOTION_DDOT":0},{"OBJECT_NAME":"GPS BIII-2  (PRN 18)","OBJECT_ID":"2019-056A","EPOCH":"2026-03-14T15:43:09.839136","MEAN_MOTION":2.00568616,"ECCENTRICITY":0.00582403,"INCLINATION":55.68,"RA_OF_ASC_NODE":334.9029,"ARG_OF_PERICENTER":197.9897,"MEAN_ANOMALY":330.8097,"EPHEMERIS_TYPE":0,"CLASSIFICATION_TYPE":"U","NORAD_CAT_ID":44506,"ELEMENT_SET_NO":999,"REV_AT_EPOCH":4817,"BSTAR":0,"MEAN_MOTION_DOT":-7.2e-7,"MEAN_MOTION_DDOT":0},{"OBJECT_NAME":"BEIDOU-3 M24 (C46)","OBJECT_ID":"2019-061A","EPOCH":"2026-03-14T04:49:54.155136","MEAN_MOTION":1.862291,"ECCENTRICITY":0.00084889,"INCLINATION":54.3984,"RA_OF_ASC_NODE":185.9306,"ARG_OF_PERICENTER":19.2225,"MEAN_ANOMALY":340.7928,"EPHEMERIS_TYPE":0,"CLASSIFICATION_TYPE":"U","NORAD_CAT_ID":44542,"ELEMENT_SET_NO":999,"REV_AT_EPOCH":4402,"BSTAR":0,"MEAN_MOTION_DOT":-1.3e-7,"MEAN_MOTION_DDOT":0},{"OBJECT_NAME":"BEIDOU-3 M23 (C45)","OBJECT_ID":"2019-061B","EPOCH":"2026-03-14T10:50:42.842400","MEAN_MOTION":1.86227431,"ECCENTRICITY":0.00049236,"INCLINATION":54.397,"RA_OF_ASC_NODE":185.8909,"ARG_OF_PERICENTER":10.3958,"MEAN_ANOMALY":69.7972,"EPHEMERIS_TYPE":0,"CLASSIFICATION_TYPE":"U","NORAD_CAT_ID":44543,"ELEMENT_SET_NO":999,"REV_AT_EPOCH":4403,"BSTAR":0,"MEAN_MOTION_DOT":-1.2e-7,"MEAN_MOTION_DDOT":0},{"OBJECT_NAME":"EUTELSAT 5 WEST B (EGNOS/PRN 121)","OBJECT_ID":"2019-067A","EPOCH":"2026-03-14T22:10:41.943648","MEAN_MOTION":1.00271714,"ECCENTRICITY":0.00031831,"INCLINATION":0.079,"RA_OF_ASC_NODE":324.4123,"ARG_OF_PERICENTER":40.6583,"MEAN_ANOMALY":135.1272,"EPHEMERIS_TYPE":0,"CLASSIFICATION_TYPE":"U","NORAD_CAT_ID":44624,"ELEMENT_SET_NO":999,"REV_AT_EPOCH":2349,"BSTAR":0,"MEAN_MOTION_DOT":-4.3e-7,"MEAN_MOTION_DDOT":0},{"OBJECT_NAME":"BEIDOU-3 IGSO-3 (C40)","OBJECT_ID":"2019-073A","EPOCH":"2026-03-10T23:36:11.529792","MEAN_MOTION":1.00267242,"ECCENTRICITY":0.00407281,"INCLINATION":54.9673,"RA_OF_ASC_NODE":281.9576,"ARG_OF_PERICENTER":188.7089,"MEAN_ANOMALY":171.2538,"EPHEMERIS_TYPE":0,"CLASSIFICATION_TYPE":"U","NORAD_CAT_ID":44709,"ELEMENT_SET_NO":999,"REV_AT_EPOCH":2347,"BSTAR":0,"MEAN_MOTION_DOT":-1.43e-6,"MEAN_MOTION_DDOT":0},{"OBJECT_NAME":"BEIDOU-3 M22 (C44)","OBJECT_ID":"2019-078A","EPOCH":"2026-03-14T00:58:20.373312","MEAN_MOTION":1.8623232,"ECCENTRICITY":0.00074654,"INCLINATION":54.0216,"RA_OF_ASC_NODE":303.1765,"ARG_OF_PERICENTER":38.197,"MEAN_ANOMALY":321.912,"EPHEMERIS_TYPE":0,"CLASSIFICATION_TYPE":"U","NORAD_CAT_ID":44793,"ELEMENT_SET_NO":999,"REV_AT_EPOCH":4287,"BSTAR":0,"MEAN_MOTION_DOT":-1.9e-7,"MEAN_MOTION_DDOT":0},{"OBJECT_NAME":"BEIDOU-3 M21 (C43)","OBJECT_ID":"2019-078B","EPOCH":"2026-03-12T00:46:41.649600","MEAN_MOTION":1.86227925,"ECCENTRICITY":0.0005425,"INCLINATION":53.9966,"RA_OF_ASC_NODE":303.2101,"ARG_OF_PERICENTER":33.1471,"MEAN_ANOMALY":326.9381,"EPHEMERIS_TYPE":0,"CLASSIFICATION_TYPE":"U","NORAD_CAT_ID":44794,"ELEMENT_SET_NO":999,"REV_AT_EPOCH":4284,"BSTAR":0,"MEAN_MOTION_DOT":-3.2e-7,"MEAN_MOTION_DDOT":0},{"OBJECT_NAME":"COSMOS 2544 (759)","OBJECT_ID":"2019-088A","EPOCH":"2026-03-14T16:59:11.349600","MEAN_MOTION":2.13102159,"ECCENTRICITY":0.00158449,"INCLINATION":65.512,"RA_OF_ASC_NODE":76.8825,"ARG_OF_PERICENTER":260.0703,"MEAN_ANOMALY":99.7905,"EPHEMERIS_TYPE":0,"CLASSIFICATION_TYPE":"U","NORAD_CAT_ID":44850,"ELEMENT_SET_NO":999,"REV_AT_EPOCH":4870,"BSTAR":0,"MEAN_MOTION_DOT":6.1e-7,"MEAN_MOTION_DDOT":0},{"OBJECT_NAME":"BEIDOU-3 M19 (C41)","OBJECT_ID":"2019-090A","EPOCH":"2026-03-13T01:56:30.031296","MEAN_MOTION":1.8623174,"ECCENTRICITY":0.00205462,"INCLINATION":56.4754,"RA_OF_ASC_NODE":65.9655,"ARG_OF_PERICENTER":291.691,"MEAN_ANOMALY":247.8851,"EPHEMERIS_TYPE":0,"CLASSIFICATION_TYPE":"U","NORAD_CAT_ID":44864,"ELEMENT_SET_NO":999,"REV_AT_EPOCH":4244,"BSTAR":0,"MEAN_MOTION_DOT":1.1e-7,"MEAN_MOTION_DDOT":0}]
